{"fetched_at":"2026-06-09T18:02:14Z","count":925,"tles":[{"name":"ISS (ZARYA)","line1":"1 25544U 98067A   26160.19103139  .00006847  00000+0  12924-3 0  9997","line2":"2 25544  51.6332 339.6717 0006890 149.5560 210.5830 15.49678250570515","category":"ISS"},{"name":"AQUA","line1":"1 27424U 02022A   26160.18978917  .00000722  00000+0  15345-3 0  9991","line2":"2 27424  98.4273 129.3131 0001425  53.8657  35.6396 14.62145858282109","category":"Other"},{"name":"TERRA","line1":"1 25994U 99068A   26160.14636836  .00000337  00000+0  77614-4 0  9994","line2":"2 25994  97.9459 210.0112 0000997 226.6941 217.2265 14.61096650408438","category":"Other"},{"name":"ENVISAT","line1":"1 27386U 02009A   26160.10528178  .00000077  00000+0  38843-4 0  9997","line2":"2 27386  98.3831 111.6041 0001321  90.2141 284.9551 14.39062928272322","category":"Other"},{"name":"SL-16 R/B","line1":"1 25407U 98045B   26159.97191280 -.00000005  00000+0  21756-4 0  9994","line2":"2 25407  71.0122 349.6072 0009524 251.7406 108.2681 14.16204869440026","category":"Other"},{"name":"MIDORI II (ADEOS-II)","line1":"1 27597U 02056A   26160.15787314  .00000239  00000+0  11172-3 0  9992","line2":"2 27597  98.7874 119.3496 0002236  88.0789 272.0648 14.29345228223366","category":"Other"},{"name":"HELIOS 1B","line1":"1 25977U 99064A   26160.17643059  .00001288  00000+0  14681-3 0  9999","line2":"2 25977  98.1623  65.0842 0002400 102.7217 257.4267 14.87985246698866","category":"Other"},{"name":"CZ-4B R/B","line1":"1 28059U 03049C   26159.97958347  .00000313  00000+0  83425-4 0  9997","line2":"2 28059  98.6896 158.4994 0047257 314.1946  45.5372 14.55094791199870","category":"Other"},{"name":"SL-16 R/B","line1":"1 26070U 00006B   26160.01100508 -.00000248  00000+0 -10170-3 0  9998","line2":"2 26070  71.0032 265.8166 0015105  35.8402 324.3731 14.15836359361488","category":"Other"},{"name":"DELTA 2 R/B","line1":"1 25876U 99041E   26159.11557659  .00000878  00000+0  17901-3 0  9996","line2":"2 25876  51.7662 300.0336 0500945 255.1992  99.2946 14.12000165375800","category":"Other"},{"name":"IDEFIX & ARIANE 42P R/B","line1":"1 27422U 02021B   26160.08908904  .00000189  00000+0  88300-4 0  9995","line2":"2 27422  98.5942  97.6601 0010613 280.5281  79.4706 14.31078313257099","category":"Other"},{"name":"TITAN 4B R/B","line1":"1 26474U 00047B   26160.17875730  .00002693  00000+0  16909-3 0  9994","line2":"2 26474  67.9873 143.1144 0045586 295.2212  64.4215 15.10150049406721","category":"Other"},{"name":"CZ-2C R/B","line1":"1 28222U 04012C   26160.10779161  .00082418  00000+0  49560-3 0  9999","line2":"2 28222  97.7081 234.8409 0008757 319.5397  40.5216 15.77442882218629","category":"Other"},{"name":"ARIANE 5 R/B","line1":"1 28499U 04049H   26160.04701391  .00000677  00000+0  80658-4 0  9999","line2":"2 28499  98.2718 331.9862 0084959  55.5593 305.3613 14.85437409159357","category":"Other"},{"name":"CZ-4B R/B","line1":"1 27432U 02024C   26160.11327816  .00000031  00000+0  38431-4 0  9996","line2":"2 27432  98.8702 212.9855 0051069 122.7251 335.0322 14.14563204242160","category":"Other"},{"name":"ALOS (DAICHI)","line1":"1 28931U 06002A   26160.12679245  .00000941  00000+0  16506-3 0  9996","line2":"2 28931  98.1320 115.7195 0001753  60.7299 299.4082 14.70033698 86915","category":"Other"},{"name":"CZ-2C R/B","line1":"1 31114U 07010B   26160.02879818  .00000075  00000+0  53458-4 0  9996","line2":"2 31114  98.4091 268.7791 0059487  29.7224 330.7311 14.20274340992681","category":"Other"},{"name":"H-2A R/B","line1":"1 28932U 06002B   26160.14453014  .00005092  00000+0  24688-3 0  9995","line2":"2 28932  98.2556 315.2476 0049626 290.3908  69.1997 15.17961465108305","category":"Other"},{"name":"SL-16 R/B","line1":"1 25861U 99039B   26160.13116913  .00000434  00000+0  61742-4 0  9996","line2":"2 25861  97.9841 219.0169 0013950 325.1334  34.8963 14.81837219450409","category":"Other"},{"name":"CZ-4B R/B","line1":"1 25732U 99025C   26160.09449258  .00000047  00000+0  43136-4 0  9991","line2":"2 25732  98.6486 202.1364 0038235  82.2573 332.9726 14.18282081401123","category":"Other"},{"name":"RESURS-DK 1","line1":"1 29228U 06021A   26159.97067451  .00002399  00000+0  14091-3 0  9994","line2":"2 29228  69.9339   0.8220 0006510 298.3074  61.7435 15.13181097101331","category":"Other"},{"name":"CZ-2C R/B","line1":"1 28480U 04046B   26159.49701834  .00000080  00000+0  45413-4 0  9993","line2":"2 28480  98.1951  68.8204 0138149 246.1474 112.5178 14.27024795121458","category":"Other"},{"name":"CZ-2D R/B","line1":"1 28738U 05024B   26160.05645527  .00044619  00000+0  39209-3 0  9997","line2":"2 28738  97.3497 179.0839 0004660  71.6558 288.5210 15.68675206154062","category":"Other"},{"name":"CZ-4B R/B","line1":"1 29507U 06046C   26160.07771575  .00003530  00000+0  17631-3 0  9994","line2":"2 29507  97.5456 204.7097 0031341 312.2930  47.5647 15.17723411 73906","category":"Other"},{"name":"SL-16 R/B","line1":"1 24298U 96051B   26159.88709625  .00000128  00000+0  95702-4 0  9991","line2":"2 24298  70.7634 342.2154 0014745 349.5138  10.5672 14.12443167534522","category":"Other"},{"name":"ORBVIEW 2 (SEASTAR)","line1":"1 24883U 97037A   26160.07425284  .00000222  00000+0  93206-4 0  9997","line2":"2 24883  98.8682 326.8689 0002945 132.8752 227.2680 14.35549281521588","category":"Other"}]}